STARLINK-1390           
1 45550U 20025V   23157.46209592  .00005848  00000+0  41108-3 0  9994
2 45550  53.0550 307.9718 0001569  82.8003 277.3164 15.06410075173275
STARLINK-1294           
1 45551U 20025W   23157.49071791 -.00000829  00000+0 -36760-4 0  9991
2 45551  53.0537 288.1089 0001210  66.6068 293.5048 15.06396998173566
STARLINK-1323           
1 45553U 20025Y   23157.50177283 -.00000348  00000+0 -45086-5 0  9996
2 45553  53.0541 288.0603 0001116  85.1136 274.9980 15.06394220172272
STARLINK-1325           
1 45554U 20025Z   23157.49345893 -.00001946  00000+0 -11179-3 0  9998
2 45554  53.0534 288.0859 0001264  87.5824 272.5310 15.06392940173563
STARLINK-1327           
1 45555U 20025AA  23157.52388999  .00010536  00000+0  72545-3 0  9994
2 45555  53.0552 287.9601 0001279  90.3537 269.7598 15.06385283173564
STARLINK-1334           
1 45556U 20025AB  23157.49809267  .00012767  00000+0  87478-3 0  9996
2 45556  53.0536 288.0802 0000769  75.9774 284.1301 15.06385005173562
STARLINK-1336           
1 45557U 20025AC  23157.50545526 -.00000497  00000+0 -14512-4 0  9993
2 45557  53.0540 288.0466 0001012  82.8481 277.2623 15.06400203173566
STARLINK-1342           
1 45558U 20025AD  23157.40593919 -.00004015  00000+0 -25080-3 0  9993
2 45558  53.0570 288.4911 0001295  91.9204 268.1933 15.06395347173549
STARLINK-1344           
1 45559U 20025AE  23157.50451325  .00012573  00000+0  86177-3 0  9999
2 45559  53.0540 288.0026 0000980  81.4206 278.6894 15.06386170173564
STARLINK-1346           
1 45560U 20025AF  23157.49437658  .00010179  00000+0  70151-3 0  9997
2 45560  53.0541 278.0815 0001123  88.1151 271.9966 15.06384444173709
STARLINK-1354           
1 45562U 20025AH  23157.51651656  .00000484  00000+0  51351-4 0  9998
2 45562  53.0546 287.9964 0000705  63.8073 296.2989 15.06396350173566
STARLINK-1355           
1 45563U 20025AJ  23157.46491313 -.00007085  00000+0 -45731-3 0  9995
2 45563  53.0542 288.2342 0000600 179.4245 180.6745 15.06392353173550
STARLINK-1356           
1 45564U 20025AK  23157.39488151  .00006399  00000+0  44823-3 0  9990
2 45564  53.0547 288.5386 0001091  90.6403 269.4711 15.06390231173543
STARLINK-1357           
1 45565U 20025AL  23157.52020384  .00009427  00000+0  65109-3 0  9991
2 45565  53.0540 287.9746 0000982  84.1967 275.9134 15.06388440173563
STARLINK-1358           
1 45566U 20025AM  23157.40225248 -.00006318  00000+0 -40568-3 0  9995
2 45566  53.0544 288.5084 0000950  51.0549 309.0524 15.06393818173549
STARLINK-1361           
1 45567U 20025AN  23157.41331386  .00006520  00000+0  45632-3 0  9998
2 45567  53.0538 288.4593 0001198  86.5489 273.5636 15.06387847173553
STARLINK-1363           
1 45568U 20025AP  23157.42808706  .00001612  00000+0  12706-3 0  9998
2 45568  53.0543 288.6319 0000807  83.6890 276.4190 15.06397809173543
STARLINK-1366           
1 45569U 20025AQ  23157.48334147 -.00003211  00000+0 -19681-3 0  9996
2 45569  53.0541 288.1422 0000731  94.7731 265.3341 15.06393754173556
STARLINK-1376           
1 45570U 20025AR  23157.40962100  .00006643  00000+0  46426-3 0  9993
2 45570  53.0542 288.4751 0001239  60.1430 299.9682 15.06411722173540
STARLINK-1261           
1 45571U 20025AS  23157.49163305 -.00004013  00000+0 -25070-3 0  9996
2 45571  53.0536 278.1080 0000990  77.2990 282.8109 15.06393728173717
STARLINK-1320           
1 45572U 20025AT  23157.50238996  .00021853  00000+0  13833-2 0  9990
2 45572  53.0545 277.5553 0001305 329.1792  30.9121 15.08931345173717
STARLINK-1321           
1 45573U 20025AU  23157.46215351 -.00005613  00000+0 -35830-3 0  9996
2 45573  53.0527 278.2387 0001427  85.6687 274.4465 15.06390497173398
STARLINK-1324           
1 45574U 20025AV  23157.48796277  .00016425  00000+0  11188-2 0  9990
2 45574  53.0541 278.1237 0001324  94.4821 265.6319 15.06407322173714
STARLINK-1328           
1 45576U 20025AX  23157.51375333  .00000919  00000+0  80546-4 0  9999
2 45576  53.0538 278.0045 0001168  85.3420 274.7702 15.06399580173711
STARLINK-1331           
1 45578U 20025AZ  23157.50638236 -.00003149  00000+0 -19265-3 0  9993
2 45578  53.0537 278.0373 0001108  73.9944 286.1167 15.06394058173711
STARLINK-1332           
1 45579U 20025BA  23157.44743042 -.00002778  00000+0 -16770-3 0  9994
2 45579  53.0527 238.4768 0001323  40.5948 319.5139 15.06392739174256
STARLINK-1333           
1 45580U 20025BB  23157.51282981  .00019674  00000+0  13358-2 0  9993
2 45580  53.0548 288.0138 0000624 176.0705 184.0289 15.06405534173564
STARLINK-1335           
1 45581U 20025BC  23157.51743592  .00012374  00000+0  84833-3 0  9991
2 45581  53.0540 277.9909 0000741  80.8820 279.2253 15.06390956173705
STARLINK-1337           
1 45582U 20025BD  23157.47321441  .00008435  00000+0  58465-3 0  9997
2 45582  53.0545 278.1900 0001053  78.7855 281.3252 15.06389491173699
STARLINK-1340           
1 45583U 20025BE  23157.52113640  .00016229  00000+0  11071-2 0  9995
2 45583  53.0543 277.9730 0000715  54.4967 305.6089 15.06359805173701
STARLINK-1343           
1 45584U 20025BF  23157.51739756  .00005802  00000+0  39385-4 0  9992
2 45584  53.0483 255.9507 0001237 125.4798 234.6337 15.76749510174019
STARLINK-1347           
1 45586U 20025BH  23157.46583847 -.00001027  00000+0 -50111-4 0  9993
2 45586  53.0543 278.2214 0000862  79.8547 280.2539 15.06395634173688
STARLINK-1349           
1 45587U 20025BJ  23157.50269600  .00013143  00000+0  89985-3 0  9997
2 45587  53.0543 278.0582 0001215  82.8124 277.3004 15.06387873173706
STARLINK-1360           
1 45588U 20025BK  23157.48057258 -.00000572  00000+0 -19504-4 0  9994
2 45588  53.0540 278.1600 0001073 196.4476 163.6478 15.06402096173695
STARLINK-1364           
1 45589U 20025BL  23157.47690165  .00011739  00000+0  80590-3 0  9991
2 45589  53.0542 278.1726 0000937  67.4149 292.6939 15.06387583173697
STARLINK-1365           
1 45590U 20025BM  23157.55890591  .00008551  00000+0  59208-3 0  9997
2 45590  53.0537 307.8072 0001758 119.5199 240.5966 15.06412968173309
XINGYUN-2 01            
1 45602U 20028A   23157.53217365  .00001350  00000+0  10394-3 0  9997
2 45602  97.4487 166.6602 0013180  42.6185 317.6061 15.03214980168118
XINGYUN-2 02            
1 45603U 20028B   23157.52255406  .00002716  00000+0  20434-3 0  9998
2 45603  97.5273 172.8876 0014431  97.0557 263.2310 15.03274701168112
ULTP                    
1 45605U 20011D   23157.55149204  .00023857  00000+0  48105-3 0  9997
2 45605  51.6393 164.8991 0006600  27.4691 332.6644 15.46395834171553
COSMOS 2546             
1 45608U 20031A   23156.91640943 -.00000203  00000+0  00000+0 0  9996
2 45608  63.1643 186.9989 6606639 266.2965  21.9236  2.00591820 22251
XJS G                   
1 45611U 20032A   23157.53142389 -.00299831  00000+0 -67565-2 0  9991
2 45611  35.0389 318.2427 0004871 292.8904 145.6996 15.43473063169404
XJS H                   
1 45612U 20032B   23157.54468623  .00085445  00000+0  90471-3 0  9990
2 45612  35.0334 308.7774 0007123 103.3356 256.8166 15.62860551169502
HEAD-4                  
1 45624U 20034A   23157.56387690  .00027820  00000+0  60108-3 0  9998
2 45624  97.4241 306.0828 0007922 335.3766  24.7103 15.44451975168221
GAOFEN 9-02             
1 45625U 20034B   23157.55623946  .00006966  00000+0  29310-3 0  9993
2 45625  97.4381 298.2710 0009864   2.8559 357.2733 15.23657854167652
STARLINK-1441           
1 45658U 20035B   23157.46676148  .00005728  00000+0  40300-3 0  9999
2 45658  53.0537 268.2157 0000939  60.2959 299.8123 15.06410578166921
STARLINK-1442           
1 45659U 20035C   23157.46951146  .00014027  00000+0  95886-3 0  9995
2 45659  53.0537 268.2084 0000995  89.4218 270.6885 15.06393699166919
STARLINK-1443           
1 45660U 20035D   23157.47781964 -.00005225  00000+0 -33227-3 0  9990
2 45660  53.0535 268.1679 0001060  88.0114 272.0997 15.06389031166928
STARLINK-1444           
1 45661U 20035E   23157.49624491 -.00002413  00000+0 -14315-3 0  9997
2 45661  53.0532 268.0827 0001338  90.8177 269.2965 15.06393438166927
STARLINK-1445           
1 45662U 20035F   23157.51099840  .00013527  00000+0  92552-3 0  9990
2 45662  53.0533 268.0188 0001202  86.5595 273.5532 15.06389838166922
STARLINK-1446           
1 45663U 20035G   23157.51467405  .00019436  00000+0  13206-2 0  9990
2 45663  53.0534 268.0064 0000486  46.4080 313.6949 15.06385701166927
STARLINK-1448           
1 45665U 20035J   23157.48149996 -.00003698  00000+0 -22955-3 0  9997
2 45665  53.0535 268.1487 0001036  70.6796 289.4305 15.06393950166915
STARLINK-1449           
1 45666U 20035K   23157.48518381  .00003627  00000+0  26241-3 0  9998
2 45666  53.0541 268.1057 0000939  87.2566 272.8530 15.06380113166919
STARLINK-1450           
1 45667U 20035L   23157.48792550  .00012054  00000+0  82708-3 0  9995
2 45667  53.0526 268.1490 0001249  84.5989 275.5142 15.06384393166911
STARLINK-1451           
1 45668U 20035M   23157.45475589  .00010928  00000+0  75109-3 0  9998
2 45668  53.0539 268.2716 0001037  77.0105 283.1000 15.06414054166927
STARLINK-1452           
1 45669U 20035N   23157.50361933  .00015069  00000+0  10286-2 0  9997
2 45669  53.0536 268.0520 0000944  79.3164 280.7931 15.06392485166921
STARLINK-1453           
1 45670U 20035P   23157.49533209  .00006812  00000+0  47576-3 0  9993
2 45670  53.0525 238.0881 0001025  71.2974 288.8126 15.06400530167230
STARLINK-1454           
1 45671U 20035Q   23157.50730487  .00017733  00000+0  12067-2 0  9993
2 45671  53.0536 268.0356 0000990  80.4383 279.6718 15.06390530166916
STARLINK-1455           
1 45672U 20035R   23157.51744101  .00006271  00000+0  43942-3 0  9995
2 45672  53.0530 237.9882 0000741  60.4950 299.6112 15.06404362167349
STARLINK-1456           
1 45673U 20035S   23157.45569949  .00018356  00000+0  12478-2 0  9990
2 45673  53.0538 268.2664 0001102 100.5727 259.5387 15.06404709166920
STARLINK-1457           
1 45674U 20035T   23157.46306926  .00003844  00000+0  27676-3 0  9999
2 45674  53.0540 268.2315 0001291  46.1933 313.9163 15.06405770166892
